141P-D/Machholz,e,13.8358,153.2831,242.1161,3.066143,0.1835759,0.73703894,207.3883,02/07.0/2024,2000,g  9.0,4.0
# From MPEC 2015-R12
141P-E/Machholz,e,12.8152,246.1856,149.2667,3.012914,0.1884620,0.75023267,359.9529,09/19.0/1994,2000,g  9.0,4.0
# From MPEC 2015-R12
141P-F/Machholz,e,12.7898,246.1881,149.2374,3.010224,0.1887147,0.75000946,359.9630,09/19.0/1994,2000,g  9.0,4.0
# From MPEC 2015-R12
141P-G/Machholz,e,12.8259,246.3146,149.0784,3.005818,0.1891298,0.74964304,359.9802,09/19.0/1994,2000,g  9.0,4.0
# From MPC 95735
141P-H/Machholz,e,12.8431,246.0900,149.4500,3.008012,0.1889230,0.74682218,359.9270,08/24.0/2015,2000,g 18.5,4.0
# From MPEC 2022-SU8
141P-I/Machholz,e,13.9437,153.5104,241.8787,3.048173,0.1852015,0.73530922,212.5093,02/07.0/2024,2000,g 17.5,4.0
# From MPEC 2024-C04
142P/Ge-Wang,e,12.2499,175.9424,174.0686,5.002167,0.0880982,0.49666695,88.1439,02/07.0/2024,2000,g  8.5,6.0
# From MPEC 2023-XP6
143P/Kowal-Mrkos,e,4.9252,244.0634,320.7220,4.255402,0.1122776,0.42405061,236.7763,02/07.0/2024,2000,g 13.5,2.0
# From MPEC 2024-C04
144P/Kushida,e,3.9319,242.9257,216.3201,3.831255,0.1314294,0.63488308,1.6075,02/07.0/2024,2000,g  8.5,8.0
# From MPC108598
145P/Shoemaker-Levy,e,11.2779,26.8155,10.3047,4.133555,0.1172785,0.54260467,275.0027,02/07.0/2024,2000,g 13.5,4.0
# From MPC100284
146P/Shoemaker-LINEAR,e,23.1171,53.4199,317.0207,4.026461,0.1219885,0.64744265,337.9831,02/07.0/2024,2000,g 15.0,4.0
# From MPC 75720
147P/Kushida-Muramatsu,e,2.2913,92.1160,348.1079,4.011583,0.1226678,0.21263147,7.5945,02/07.0/2024,2000,g 14.0,4.0
# From MPEC 2023-HD1
148P/Anderson-LINEAR,e,3.6585,89.1975,8.0519,3.619699,0.1431184,0.55019298,86.3248,02/07.0/2024,2000,g 16.2,4.0
# From MPEC 2023-J29
149P/Mueller,e,34.2416,143.8532,30.4128,4.124125,0.1176810,0.32433734,237.0478,02/07.0/2024,2000,g  8.0,8.0
# From MPEC 2024-C04
150P/LONEOS,e,18.5475,272.0596,246.1108,3.869765,0.1294724,0.54891641,355.5385,02/07.0/2024,2000,g 13.5,4.0
# From MPEC 2022-K19
151P/Helin,e,4.7280,143.1683,216.1267,5.763931,0.0712239,0.57337293,216.3308,02/07.0/2024,2000,g 10.0,6.0
# From MPEC 2024-C04
152P/Helin-Lawrence,e,9.8778,91.8053,164.3159,4.482426,0.1038567,0.30824072,78.2295,02/07.0/2024,2000,g 11.5,4.0
# From MPC 46101
153P/Ikeya-Zhang,e,28.3644,93.6741,34.4167,50.34710,0.0027589,0.98994944,0.0000,03/05.2777/2002,2000,g  9.0,4.0
# From MPEC 2022-K19
154P/Brewington,e,17.6341,343.0164,47.9614,4.795261,0.0938611,0.67615266,348.2248,02/07.0/2024,2000,g  2.5,12.0
# From MPEC 2022-YN2
155P/Shoemaker,e,6.4070,97.1601,14.5217,6.571131,0.0585119,0.72720493,90.3470,02/07.0/2024,2000,g 10.0,4.8
# From MPEC 2023-J29
156P/Russell-LINEAR,e,17.2700,35.3420,0.5009,3.462471,0.1529766,0.61515453,179.8127,02/07.0/2024,2000,g 15.5,2.0
# From MPEC 2023-HD1
157P/Tritton,e,12.4204,287.5232,155.1136,3.546781,0.1475545,0.55680058,76.0041,02/07.0/2024,2000,g 15.0,4.0
# From MPEC 2022-VC5
157P-B/Tritton,e,12.4252,153.9199,287.1359,3.102209,0.1803838,0.49987113,93.2390,02/07.0/2024,2000,g 15.7,4.0
# From MPEC 2024-AF0
158P/Kowal-LINEAR,e,7.2867,127.7101,212.2122,5.528407,0.0758235,0.11471748,50.0482,02/07.0/2024,2000,g  9.0,4.0
# From MPEC 2021-N06
159P/LONEOS,e,23.4824,54.9587,4.6180,5.853127,0.0696021,0.38282096,145.0574,02/07.0/2024,2000,g 10.0,4.0
# From MPEC 2022-K19
160P/LINEAR,e,15.6054,333.3755,12.7852,3.778029,0.1342166,0.52560172,205.0244,02/07.0/2024,2000,g 15.5,2.0
# From MPC 75721
161P/Hartley-IRAS,e,95.8237,1.5686,47.0576,7.713353,0.0460086,0.83559303,312.8308,02/07.0/2024,2000,g  8.5,6.0
# From MPEC 2023-RF3
162P/SidingSpring,e,27.5639,30.8877,357.2124,3.092190,0.1812611,0.58313567,209.4516,02/07.0/2024,2000,g 12.0,4.0
# From MPEC 2021-S45
163P/NEAT,e,12.7185,102.0689,349.5708,3.763215,0.1350099,0.45314166,222.1582,02/07.0/2024,2000,g 14.5,4.0
# From MPEC 2021-F20
164P/Christensen,e,16.2721,88.3040,325.8807,3.652729,0.1411815,0.54122484,292.8876,02/07.0/2024,2000,g 11.0,4.0
# From MPC 75721
165P/LINEAR,e,15.8987,0.8037,125.7665,17.82151,0.0131005,0.61790873,113.3715,02/07.0/2024,2000,g 11.5,2.0
# From MPC 75722
166P/NEAT,e,15.3792,64.4333,321.7080,13.82379,0.0191762,0.38432181,151.7235,02/07.0/2024,2000,g  5.5,4.0
# From MPEC 2023-J29
167P/CINEOS,e,19.0891,295.7899,344.7298,16.25804,0.0150349,0.26852983,125.2318,02/07.0/2024,2000,g  9.5,2.0
# From MPEC 2023-J29
168P/Hergenrother,e,21.6056,355.4205,15.0724,3.586918,0.1450848,0.62156501,238.2777,02/07.0/2024,2000,g 15.5,4.0
# From MPEC 2023-J95
169P/NEAT,e,11.2948,176.0941,218.0776,2.603273,0.2346522,0.76830333,135.4550,02/07.0/2024,2000,g 16.0,2.0
# From MPEC 2024-C04
170P/Christensen,e,10.1116,142.7420,225.2013,4.208410,0.1141634,0.30577838,33.6714,02/07.0/2024,2000,g 12.0,4.0
# From MPC102102
171P/Spahr,e,21.9492,101.6978,347.0581,3.552774,0.1471813,0.50254055,272.2673,02/07.0/2024,2000,g 13.5,4.0
# From MPEC 2024-BE0
172P/Yeung,e,11.2252,30.8766,209.0679,4.219927,0.1136964,0.20448893,287.7453,02/07.0/2024,2000,g 13.0,4.0
# From MPEC 2023-N01
173P/Mueller,e,16.4902,100.3601,29.1802,5.712143,0.0721947,0.26193905,56.4800,02/07.0/2024,2000,g  7.5,4.0
# From MPC 92985
174P/Echeclus,e,4.3431,173.2956,163.4234,10.75403,0.0279478,0.45610614,89.7100,02/07.0/2024,2000,g  9.4,2.0
# From MPC114608
175P/Hergenrother,e,4.9103,110.2267,75.1564,3.668864,0.1402512,0.38100976,228.4755,02/07.0/2024,2000,g 14.0,4.0
# From MPC 89015
176P/LINEAR,e,0.2314,345.6219,34.4576,3.194490,0.1726242,0.19228377,76.6145,02/07.0/2024,2000,g 15.1,2.0
# From MPEC 2020-L06
177P/Barnard,e,31.0652,271.9867,60.5776,24.51382,0.0081206,0.95478305,51.6810,02/07.0/2024,2000,g 15.0,4.0
# From MPEC 2021-F20
178P/Hug-Bell,e,11.0895,102.8026,297.9138,3.632804,0.1423446,0.48253473,184.9544,02/07.0/2024,2000,g 14.6,4.0
# From MPEC 2024-C04
179P/Jedicke,e,19.8944,115.5152,297.0855,5.934487,0.0681756,0.30581564,42.0329,02/07.0/2024,2000,g  2.5,8.0
# From MPEC 2023-RF3
180P/NEAT,e,16.8608,84.5604,94.6536,3.868443,0.1295388,0.35355729,27.1858,02/07.0/2024,2000,g 11.0,4.0
# From MPC 89012
181P/Shoemaker-Levy,e,17.4832,35.4200,336.2843,3.877383,0.1290910,0.70037680,98.0166,02/07.0/2024,2000,g 11.5,4.0
# From MPEC 2014-J10
182P/LONEOS,e,16.2315,72.4489,54.2091,2.949560,0.1945665,0.66350394,123.6760,02/07.0/2024,2000,g 18.0,4.0
# From MPEC 2023-A50
183P/Korlevic-Juric,e,18.8311,3.8915,165.1134,4.684897,0.0971973,0.10381200,229.8540,02/07.0/2024,2000,g 12.5,2.0
# From MPEC 2020-W26
184P/Lovas,e,4.5731,173.2757,186.5540,3.798949,0.1331094,0.55053033,159.5686,02/07.0/2024,2000,g 13.5,4.0
# From MPEC 2024-A43
185P/Petriew,e,14.0145,214.1149,181.8925,3.098371,0.1807190,0.69970731,37.7894,02/07.0/2024,2000,g 15.0,4.0
# From MPEC 2022-X67
186P/Garradd,e,28.6279,326.1533,269.1084,4.851753,0.0922266,0.12427626,172.2853,02/07.0/2024,2000,g  7.5,4.0
# From MPEC 2020-SI8
187P/LINEAR,e,13.6470,109.8545,131.1696,4.560743,0.1011931,0.15364868,212.3773,02/07.0/2024,2000,g  9.0,4.0
# From MPEC 2023-J29
188P/LINEAR-Mueller,e,10.5240,358.9434,26.7296,4.368365,0.1079508,0.41693377,274.0770,02/07.0/2024,2000,g 11.5,4.0
# From MPEC 2022-QD9
189P/NEAT,e,20.0879,281.6749,16.2762,2.943579,0.1951599,0.58910827,102.8801,02/07.0/2024,2000,g 19.0,4.0
# From MPEC 2020-K19
190P/Mueller,e,2.1745,335.5630,50.4374,4.227671,0.1133842,0.52224031,323.5938,02/07.0/2024,2000,g 13.0,4.0
# From MPEC 2022-X67
191P/McNaught,e,8.8389,98.1962,284.2222,3.639230,0.1419678,0.38574522,149.5559,02/07.0/2024,2000,g 13.0,4.0
# From MPC 75724
192P/Shoemaker-Levy,e,24.5849,51.6552,313.0433,6.460191,0.0600255,0.77330427,353.5552,02/07.0/2024,2000,g 15.0,4.0
# From MPEC 2022-Y15
193P/LINEAR-NEAT,e,10.6849,335.1862,8.1332,3.577955,0.1456303,0.39323020,130.4976,02/07.0/2024,2000,g 14.0,4.0
# From MPEC 2024-C04
194P/LINEAR,e,11.8061,349.5245,128.5626,4.119706,0.1178704,0.56317956,0.3274,02/07.0/2024,2000,g 16.0,4.0
# From MPEC 2024-C04
195P/Hill,e,36.4115,243.1074,249.8637,6.489670,0.0596170,0.31462763,327.8468,02/07.0/2024,2000,g  8.5,4.0
# From MPEC 2022-YN2
196P/Tichy,e,19.3014,24.1140,12.0751,3.804110,0.1328387,0.42796227,61.8565,02/07.0/2024,2000,g 13.5,4.0
# From MPEC 2023-UR6
197P/LINEAR,e,25.5750,66.2874,188.9740,2.874417,0.2022458,0.62950361,86.1605,02/07.0/2024,2000,g 16.5,2.0
# From NK 1596
198P/ODAS,e,1.3387,358.2135,69.2654,3.594699,0.1446140,0.44471394,271.6884,02/07.0/2024,2000,g  9.0,4.0
# From MPEC 2023-W26
199P/Shoemaker,e,24.9387,92.3486,191.7717,5.878648,0.0691493,0.50492101,12.6841,02/07.0/2024,2000,g 10.0,4.0
# From MPEC 2022-C56
200P/Larsen,e,12.0962,234.8065,134.3478,4.949481,0.0895086,0.33212694,147.9402,02/07.0/2024,2000,g  9.0,4.0
# From MPC 93588
201P/LONEOS,e,5.7401,41.5404,19.7613,3.354787,0.1604009,0.63755768,158.1210,02/07.0/2024,2000,g 14.0,4.0
# From MPEC 2023-XP6
202P/Scotti,e,2.1416,177.3266,274.4808,4.106964,0.1184193,0.25257366,348.1111,02/07.0/2024,2000,g 13.5,4.0
# From MPEC 2021-S45
203P/Korlevic,e,2.9738,290.2593,154.8236,4.668761,0.0977016,0.31617428,140.0210,02/07.0/2024,2000,g 14.5,2.0
# From MPEC 2023-KD6
204P/LINEAR-NEAT,e,6.5962,108.4865,356.6839,3.583263,0.1453069,0.48808568,64.9600,02/07.0/2024,2000,g 14.0,4.0
# From MPEC 2023_O39
205P/Giacobini,e,15.3050,179.6102,154.1847,3.542467,0.1478242,0.56763196,111.5452,02/07.0/2024,2000,g 13.0,4.0
# From MPC 75725
206P/Barnard-Boattini,e,33.6358,202.3522,189.5468,3.490843,0.1511154,0.55146826,161.5528,02/07.0/2024,2000,g 19.0,4.0
# From MPEC 2024-C04
207P/NEAT,e,10.2008,198.1593,272.9834,3.882563,0.1288328,0.75835019,0.7971,02/07.0/2024,2000,g 16.0,4.0
# From MPEC 2022-K19
208P/McMillan,e,4.4123,36.4020,310.6034,4.039031,0.1214195,0.37391786,335.8518,02/07.0/2024,2000,g 12.5,4.0
# From MPEC 2024-A43
209P/LINEAR,e,21.2825,62.7698,152.4906,2.958449,0.1936903,0.67399258,329.3005,02/07.0/2024,2000,g 17.0,2.0
# From MPC105242
210P/Christensen,e,10.2782,93.8240,345.8930,3.162287,0.1752678,0.83395936,245.2520,02/07.0/2024,2000,g 13.5,4.0
# From MPEC 2023-KD6
211P/Hill,e,18.9190,117.1152,4.3125,3.548713,0.1474340,0.34418508,72.2828,02/07.0/2024,2000,g 12.5,4.0
# From MPEC 2024-C04
